[{"OBJECT_NAME":"STARLINK-1954","OBJECT_ID":"2021-009H","EPOCH":"2026-03-09T23:20:25.352160","MEAN_MOTION":15.30849174,"ECCENTRICITY":0.00046184,"INCLINATION":53.0574,"RA_OF_ASC_NODE":8.8654,"ARG_OF_PERICENTER":103.3293,"MEAN_ANOMALY":256.8222,"EPHEMERIS_TYPE":0,"CLASSIFICATION_TYPE":"U","NORAD_CAT_ID":47555,"ELEMENT_SET_NO":999,"REV_AT_EPOCH":28100,"BSTAR":0.0022371791,"MEAN_MOTION_DOT":0.00067883,"MEAN_MOTION_DDOT":0},{"OBJECT_NAME":"STARLINK-36109","OBJECT_ID":"2025-286U","EPOCH":"2026-03-09T23:14:42.804672","MEAN_MOTION":15.3021639,"ECCENTRICITY":0.0001592,"INCLINATION":53.1605,"RA_OF_ASC_NODE":356.8575,"ARG_OF_PERICENTER":118.9935,"MEAN_ANOMALY":241.1226,"EPHEMERIS_TYPE":0,"CLASSIFICATION_TYPE":"U","NORAD_CAT_ID":66943,"ELEMENT_SET_NO":999,"REV_AT_EPOCH":1539,"BSTAR":0.00097796483,"MEAN_MOTION_DOT":0.00028732,"MEAN_MOTION_DDOT":0}]
